1 37997U 93036BQY 18204.67220176 +.00001143 +00000-0 +36481-3 0  9996
2 37997 074.0115 216.4089 0053030 201.0573 158.8399 14.40051531472756
1 37703U 99025ELU 18204.24008481 +.00000835 +00000-0 +37564-3 0  9991
2 37703 099.1435 006.0091 0053311 202.6759 284.6970 14.24475086492702
1 38135U 99025EQG 18202.82963015 +.00000157 +00000-0 +76017-4 0  9990
2 38135 098.9836 222.3521 0238047 280.0776 077.3621 14.18876093226931
1 37928U 99025EPD 18205.10357275 +.00000186 +00000-0 +88142-4 0  9992
2 37928 098.8417 322.4918 0081491 340.2667 019.5367 14.29176602425862
1 37595U 99025EKP 12023.75198549  .00016574  00000-0  98225-2 0  9991
2 37595  99.1257  35.0350 0065385  64.4828 296.3626 14.06552113431874
1 38138U 99025EQK 18204.91923584 +.00000529 +00000-0 +28946-3 0  9992
2 38138 098.9357 257.8771 0053942 159.2974 201.0401 14.15519073399356
1 37957U 93036BPG 18205.10936198 +.00003117 +00000-0 +42441-3 0  9995
2 37957 074.0211 001.1294 0013716 004.0705 356.0580 14.79125579274773
1 37599U 99025EKT 12133.57341238 +.00007287 +00000-0 +14449-2 0  9999
2 37599 099.0124 264.9467 0175577 263.7164 091.1506 14.53212244177802
1 37684U 99025EKZ 13083.90042290 +.00001773 +00000-0 +15603-2 0  9999
2 37684 098.1683 128.1084 0254295 129.7896 232.7223 13.72646808272331
1 38115U 99025EPL 17350.10537117  .00001871  00000-0  13418-2 0  9990
2 38115  97.6920 304.5774 0333618  63.9196 299.5893 13.74434819484624
1 37909U 99025ENJ 18204.07437972 +.00000722 +00000-0 +67894-3 0  9995
2 37909 098.9398 305.4175 0206884 208.2504 150.7301 13.75430132445762
1 37913U 99025ENN 18205.39001370 +.00001479 +00000-0 +33128-3 0  9998
2 37913 098.9021 002.6652 0142249 030.8770 330.0693 14.52270947405769
1 37578U 99025EKB 18204.39253015 +.00001192 +00000-0 +41260-3 0  9997
2 37578 098.7509 274.5242 0069637 301.9889 057.4541 14.36258644499758
1 37767U 11039C   18205.38963066 +.00000222 +00000-0 +90276-4 0  9995
2 37767 097.9379 121.8393 0154122 129.9507 006.0600 14.29262777363811
1 37694U 99025ELK 18205.07960918 +.00000162 +00000-0 +12202-3 0  9999
2 37694 098.2254 138.0302 0177777 207.9029 221.4807 13.98347046438513
1 38058U 93036BRQ 18205.60809757 -.00000037 +00000-0 -14272-4 0  9995
2 38058 074.0055 307.9086 0445452 025.7611 336.4960 13.49541026218351
1 37698U 99025ELP 18162.20622772  .00000437  00000-0  42700-3 0  9994
2 37698  97.9714 139.2008 0362049 273.5634 151.0617 13.57870350504840
1 38001U 93036BRC 18204.93364847 +.00000150 +00000-0 +35029-4 0  9991
2 38001 074.0100 295.7656 0085456 033.1571 086.2424 14.61429177351764
1 37706U 99025ELX 18204.36708715 +.00000429 +00000-0 +26308-3 0  9997
2 37706 099.0063 245.5685 0049868 343.1015 074.1020 14.10572171520942
1 38016U 97051YC  18205.46471385 +.00004341 +00000-0 +59862-3 0  9999
2 38016 086.3998 106.7458 0030783 183.0049 303.7503 14.77653838242887
1 37968U 93036BPT 18203.31919445 +.00000361 +00000-0 +54520-4 0  9994
2 37968 074.0080 192.1263 0133729 272.5596 086.0274 14.72870973202985
1 37710U 99025EMB 18178.53402986  .00000438  00000-0  54122-3 0  9997
2 37710  99.2177 289.0742 0268868 303.0663 114.4308 13.56413830504886
1 37598U 99025EKS 18205.32443668 +.00000452 +00000-0 +23648-3 0  9996
2 37598 098.9574 238.6525 0014082 113.0432 305.4669 14.19365323259305
1 38142U 99025EQP 18203.44244681 +.00000700 +00000-0 +19064-3 0  9990
2 38142 098.6121 275.7505 0098876 072.5938 288.6036 14.47805029266322
1 37960U 93036BPK 18205.32288586 +.00000180 +00000-0 +10035-3 0  9995
2 37960 074.0602 192.1634 0269882 130.6247 231.8703 14.00089216395844
1 37683U 99025EKY 18195.63348647 -.00000193  00000-0 -14489-3 0  9991
2 37683  97.9912 332.5418 0629704  98.3464 330.0022 13.21139544516526
1 38146U 99025EQT 13315.50243100 +.00002343 +00000-0 +57475-3 0  9998
2 38146 099.5434 202.5211 0288787 345.3818 011.6719 14.31329862317738
1 37966U 93036BPR 18204.83597682 +.00000760 +00000-0 +18447-3 0  9995
2 37966 073.9991 031.1058 0024403 180.7367 179.3764 14.54492415458344
1 37687U 99025ELC 18205.38136639 -.00000952 +00000-0 -71910-3 0  9990
2 37687 098.2113 248.6004 0414375 022.7143 033.2398 13.58444912464232
1 38120U 99025EPR 18205.52171473 +.00001900 +00000-0 +48148-3 0  9993
2 38120 098.3527 107.5847 0049479 033.1845 093.3662 14.51286384266688
1 37917U 99025ENS 18185.03400221  .00000143  00000-0  11294-3 0  9995
2 37917  99.0045 268.1241 0052539 112.4801 248.1941 14.05791415506019
1 37581U 99025EKE 18205.47200999 +.00000148 +00000-0 +82556-4 0  9998
2 37581 098.8652 196.8831 0111553 269.2660 243.5550 14.22011296833025
1 37770U 11039F   18205.43249112 +.00000547 +00000-0 +12394-3 0  9998
2 37770 097.7609 201.7392 0094294 203.9416 320.3929 14.57051294370108
1 38062U 93036BRU 18205.23904112 +.00000547 +00000-0 +13953-3 0  9998
2 38062 074.0232 053.4299 0032646 135.6984 341.8297 14.52662061414105
1 38019U 97051YF  18205.56193728 +.00002559 +00000-0 +67986-3 0  9990
2 38019 086.3996 147.6477 0084638 175.3451 184.8559 14.46126346439402
1 37973U 93036BPY 18200.39305172 +.00000213 +00000-0 +85804-4 0  9996
2 37973 074.0350 224.3010 0043640 241.0281 118.6492 14.33441099261937
1 37714U 99025EMF 18203.13386734 +.00000772 +00000-0 +43134-3 0  9990
2 37714 098.9714 268.1311 0062478 226.7131 132.8820 14.12886102192417
1 38145U 99025EQS 18170.23854300  .00000886  00000-0  72701-3 0  9990
2 38145  97.6223 339.7410 0426869 200.1625 158.2206 13.55936935525409
1 37983U 93036BQJ 18202.54679547  .00001392  00000-0  19224-3 0  9997
2 37983  74.0101 286.9764 0022114  19.9016 340.3017 14.79048277474319
1 37690U 99025ELF 18204.94860047 +.00000335 +00000-0 +22114-3 0  9997
2 37690 098.9789 244.8306 0042695 358.2072 125.8335 14.08100243488513
1 38123U 99025EPU 18202.89882275 +.00000754 +00000-0 +11227-2 0  9995
2 38123 100.3245 250.7048 0438868 211.7117 145.6869 13.23883510427508
1 38127U 99025EPY 18180.72094121  .00000444  00000-0  17838-3 0  9992
2 38127  99.0935   9.7894 0064839 155.8720 204.5523 14.32177718512148
1 37920U 99025ENV 18204.33699252 +.00000646 +00000-0 +38886-3 0  9992
2 37920 099.0178 244.4457 0064645 309.0467 108.5511 14.09403052259994
1 37586U 04025L   18204.58115509 +.00000126 +00000-0 +78979-4 0  9992
2 37586 098.2215 116.6417 0324884 277.6978 078.7413 13.96146237403198
1 37895U 99025EMU 18204.88401010 +.00000259 +00000-0 +35488-3 0  9991
2 37895 099.2071 248.4424 0333297 114.9775 248.6366 13.45865920422962
1 38065U 93036BRX 18205.50782733 +.00000939 +00000-0 +25251-3 0  9993
2 38065 074.0307 127.9708 0020022 140.6747 333.5679 14.49333175356239
1 37899U 99025EMY 18195.02799079  .00000312  00000-0  34006-3 0  9990
2 37899  98.8045 220.6385 0227521 330.0231  28.8049 13.69100697424541
1 37902U 99025ENB 18199.69425666  .00000325  00000-0  44391-3 0  9992
2 37902  98.6856  16.2064 0344283   2.4713 357.8026 13.43226524413804
1 38023U 97051YK  18204.64282263 +.00002667 +00000-0 +79696-3 0  9997
2 38023 086.4183 170.3270 0102631 288.3918 070.6143 14.39619887454527
1 37977U 93036BQC 18204.53074791 +.00001006 +00000-0 +30242-3 0  9996
2 37977 073.9844 163.2974 0039733 198.6309 161.3396 14.43528976424865
1 37717U 99025EMJ 18205.63664530 +.00000456 +00000-0 +12752-3 0  9994
2 37717 098.7696 347.9932 0126546 048.8631 008.4002 14.46656079501472
1 38028U 97051YQ  18203.94245576 +.00000191 +00000-0 +54071-4 0  9991
2 38028 086.3273 084.0267 0031329 032.9362 327.3780 14.39871373442312
1 37986U 93036BQM 18204.26204708 +.00001712 +00000-0 +32501-3 0  9993
2 37986 074.0138 050.0881 0012571 060.3878 299.8541 14.64982475268642
1 37993U 93036BQU 18202.58103522  .00000394  00000-0  13004-3 0  9998
2 37993  74.0299 164.4483 0036061 197.3939 162.5984 14.40925697411021
1 38131U 99025EQC 18184.64498906 +.00000814 +00000-0 +54084-3 0  9996
2 38131 097.9013 331.5848 0129568 295.1476 063.6298 13.99704924257527
1 37924U 99025ENZ 18204.88152599 +.00000568 +00000-0 +30162-3 0  9996
2 37924 098.9427 245.3247 0052632 234.1825 125.4452 14.16935916490557
1 37590U 99025EKJ 18204.71022262 +.00000922 +00000-0 +27617-3 0  9995
2 37590 099.0004 014.5913 0145446 307.0468 051.7488 14.39615212552282
1 37594U 99025EKN 18205.52752042 +.00000001 +00000-0 +26246-4 0  9991
2 37594 099.0467 230.4265 0087258 309.9810 049.3721 14.08891399397891
1 38069U 93036BSB 18202.54533983  .00001538  00000-0  56331-3 0  9998
2 38069  74.1894  41.3645 0097429 238.1498 151.4515 14.31061607365511
1 37905U 99025ENE 18205.31939959 +.00000180 +00000-0 +17715-3 0  9996
2 37905 099.3857 237.7312 0138046 116.8591 244.6754 13.87183481232727
1 37732U 11030C   18205.60474514 +.00000239 +00000-0 +10098-3 0  9999
2 37732 097.9947 085.2872 0166362 115.8784 275.7040 14.25822785366294
1 38054U 93036BRL 18204.23803935 -.00000560 +00000-0 -52910-3 0  9992
2 38054 073.9574 291.9886 0397400 072.5842 321.0043 13.49221391364585
1 37996U 93036BQX 18204.12040016 +.00001290 +00000-0 +87714-3 0  9996
2 37996 074.0734 093.5746 0314958 115.8837 247.5115 13.79501604862285
1 37702U 99025ELT 15111.26525699 +.00001378 +00000-0 +65167-3 0  9994
2 37702 098.8885 128.1113 0048112 295.7409 062.2457 14.20776337324854
1 38134U 99025EQF 18205.03844439 +.00001002 +00000-0 +56569-3 0  9992
2 38134 098.5172 301.7298 0130749 191.4944 168.3233 14.08140344257390
1 37927U 99025EPC 18204.35872898 +.00000827 +00000-0 +37322-3 0  9995
2 37927 098.8657 256.1484 0010567 293.6603 066.3466 14.24923446453317
1 37956U 93036BPF 18204.76371082 +.00000882 +00000-0 +16564-3 0  9993
2 37956 074.0466 340.2800 0047265 046.4598 314.0481 14.65599625403927
1 38114U 99025EPK 18204.40538094 +.00001226 +00000-0 +59843-3 0  9993
2 38114 097.9304 071.5946 0143869 288.7625 069.7988 14.14344598233639
1 37908U 99025ENH 18204.45436611 +.00000184 +00000-0 +88022-4 0  9994
2 37908 099.1371 068.9622 0083906 062.4756 298.4919 14.29027420254530
1 37912U 99025ENM 18205.30420420 +.00000362 +00000-0 +28884-3 0  9992
2 37912 099.1244 133.1767 0113939 268.3889 245.0138 13.94542243395514
1 37574U 08026F   18205.48266441 +.00000057 +00000-0 +80772-4 0  9993
2 37574 098.7630 035.2736 0254915 062.1218 300.5503 13.73133795293577
